CCSDS_OMM_VERS = 2.0
CREATION_DATE  = 
ORIGINATOR     = 

OBJECT_NAME    = H-2A R/B
OBJECT_ID      = 2006-002B
CENTER_NAME    = EARTH
REF_FRAME      = TEME
TIME_SYSTEM    = UTC
MEAN_ELEMENT_THEORY = SGP/SGP4

EPOCH          = 2026-03-23T22:14:29.798592
MEAN_MOTION    = 15.16725804
ECCENTRICITY   = .00522781
INCLINATION    = 98.2443
RA_OF_ASC_NODE = 231.1802
ARG_OF_PERICENTER = 192.1274
MEAN_ANOMALY   = 167.8702

EPHEMERIS_TYPE = 0
CLASSIFICATION_TYPE = U
NORAD_CAT_ID   = 28932
ELEMENT_SET_NO = 999
REV_AT_EPOCH   = 9659
BSTAR          = .49036776E-3
MEAN_MOTION_DOT = .9881E-4
MEAN_MOTION_DDOT = 0

CCSDS_OMM_VERS = 2.0
CREATION_DATE  = 
ORIGINATOR     = 

OBJECT_NAME    = RESURS-DK 1
OBJECT_ID      = 2006-021A
CENTER_NAME    = EARTH
REF_FRAME      = TEME
TIME_SYSTEM    = UTC
MEAN_ELEMENT_THEORY = SGP/SGP4

EPOCH          = 2026-03-23T18:02:22.728480
MEAN_MOTION    = 15.12835410
ECCENTRICITY   = .00007134
INCLINATION    = 69.9339
RA_OF_ASC_NODE = 200.6470
ARG_OF_PERICENTER = 89.5327
MEAN_ANOMALY   = 270.5921

EPHEMERIS_TYPE = 0
CLASSIFICATION_TYPE = U
NORAD_CAT_ID   = 29228
ELEMENT_SET_NO = 999
REV_AT_EPOCH   = 8965
BSTAR          = .16022921E-3
MEAN_MOTION_DOT = .2715E-4
MEAN_MOTION_DDOT = 0

CCSDS_OMM_VERS = 2.0
CREATION_DATE  = 
ORIGINATOR     = 

OBJECT_NAME    = CZ-4B R/B
OBJECT_ID      = 2006-046C
CENTER_NAME    = EARTH
REF_FRAME      = TEME
TIME_SYSTEM    = UTC
MEAN_ELEMENT_THEORY = SGP/SGP4

EPOCH          = 2026-03-23T22:09:16.226208
MEAN_MOTION    = 15.17045680
ECCENTRICITY   = .00322783
INCLINATION    = 97.5564
RA_OF_ASC_NODE = 127.7932
ARG_OF_PERICENTER = 215.8566
MEAN_ANOMALY   = 144.0501

EPHEMERIS_TYPE = 0
CLASSIFICATION_TYPE = U
NORAD_CAT_ID   = 29507
ELEMENT_SET_NO = 999
REV_AT_EPOCH   = 6220
BSTAR          = .26734491E-3
MEAN_MOTION_DOT = .529E-4
MEAN_MOTION_DDOT = 0

CCSDS_OMM_VERS = 2.0
CREATION_DATE  = 
ORIGINATOR     = 

OBJECT_NAME    = CZ-2C R/B
OBJECT_ID      = 2007-010B
CENTER_NAME    = EARTH
REF_FRAME      = TEME
TIME_SYSTEM    = UTC
MEAN_ELEMENT_THEORY = SGP/SGP4

EPOCH          = 2026-03-23T21:16:23.991456
MEAN_MOTION    = 14.20251087
ECCENTRICITY   = .00579103
INCLINATION    = 98.3993
RA_OF_ASC_NODE = 195.4546
ARG_OF_PERICENTER = 252.5152
MEAN_ANOMALY   = 106.9691

EPHEMERIS_TYPE = 0
CLASSIFICATION_TYPE = U
NORAD_CAT_ID   = 31114
ELEMENT_SET_NO = 999
REV_AT_EPOCH   = 98173
BSTAR          = .78997558E-4
MEAN_MOTION_DOT = .13E-5
MEAN_MOTION_DDOT = 0

CCSDS_OMM_VERS = 2.0
CREATION_DATE  = 
ORIGINATOR     = 

OBJECT_NAME    = COSMO-SKYMED 1
OBJECT_ID      = 2007-023A
CENTER_NAME    = EARTH
REF_FRAME      = TEME
TIME_SYSTEM    = UTC
MEAN_ELEMENT_THEORY = SGP/SGP4

EPOCH          = 2026-03-23T23:20:21.103008
MEAN_MOTION    = 14.96639429
ECCENTRICITY   = .00010938
INCLINATION    = 97.8880
RA_OF_ASC_NODE = 274.1209
ARG_OF_PERICENTER = 87.9139
MEAN_ANOMALY   = 272.2208

EPHEMERIS_TYPE = 0
CLASSIFICATION_TYPE = U
NORAD_CAT_ID   = 31598
ELEMENT_SET_NO = 999
REV_AT_EPOCH   = 1704
BSTAR          = .26117792E-3
MEAN_MOTION_DOT = .2918E-4
MEAN_MOTION_DDOT = 0

CCSDS_OMM_VERS = 2.0
CREATION_DATE  = 
ORIGINATOR     = 

OBJECT_NAME    = COSMOS 2428
OBJECT_ID      = 2007-029A
CENTER_NAME    = EARTH
REF_FRAME      = TEME
TIME_SYSTEM    = UTC
MEAN_ELEMENT_THEORY = SGP/SGP4

EPOCH          = 2026-03-23T16:38:57.368256
MEAN_MOTION    = 14.12947956
ECCENTRICITY   = .00096167
INCLINATION    = 70.9441
RA_OF_ASC_NODE = 173.9519
ARG_OF_PERICENTER = 262.7406
MEAN_ANOMALY   = 97.2622

EPHEMERIS_TYPE = 0
CLASSIFICATION_TYPE = U
NORAD_CAT_ID   = 31792
ELEMENT_SET_NO = 999
REV_AT_EPOCH   = 96607
BSTAR          = .2405717E-4
MEAN_MOTION_DOT = -.3E-7
MEAN_MOTION_DDOT = 0

CCSDS_OMM_VERS = 2.0
CREATION_DATE  = 
ORIGINATOR     = 

OBJECT_NAME    = SL-16 R/B
OBJECT_ID      = 2007-029B
CENTER_NAME    = EARTH
REF_FRAME      = TEME
TIME_SYSTEM    = UTC
MEAN_ELEMENT_THEORY = SGP/SGP4

EPOCH          = 2026-03-23T22:30:24.827904
MEAN_MOTION    = 14.14841774
ECCENTRICITY   = .00025082
INCLINATION    = 70.9755
RA_OF_ASC_NODE = 142.4358
ARG_OF_PERICENTER = 277.0275
MEAN_ANOMALY   = 255.5701

EPHEMERIS_TYPE = 0
CLASSIFICATION_TYPE = U
NORAD_CAT_ID   = 31793
ELEMENT_SET_NO = 999
REV_AT_EPOCH   = 96738
BSTAR          = .14470055E-3
MEAN_MOTION_DOT = .231E-5
MEAN_MOTION_DDOT = 0

CCSDS_OMM_VERS = 2.0
CREATION_DATE  = 
ORIGINATOR     = 

OBJECT_NAME    = KORONAS-FOTON
OBJECT_ID      = 2009-003A
CENTER_NAME    = EARTH
REF_FRAME      = TEME
TIME_SYSTEM    = UTC
MEAN_ELEMENT_THEORY = SGP/SGP4

EPOCH          = 2026-03-23T23:05:27.124800
MEAN_MOTION    = 15.43688875
ECCENTRICITY   = .00118186
INCLINATION    = 82.4278
RA_OF_ASC_NODE = 261.0326
ARG_OF_PERICENTER = 103.3625
MEAN_ANOMALY   = 256.8941

EPHEMERIS_TYPE = 0
CLASSIFICATION_TYPE = U
NORAD_CAT_ID   = 33504
ELEMENT_SET_NO = 999
REV_AT_EPOCH   = 94794
BSTAR          = .31746738E-3
MEAN_MOTION_DOT = .14394E-3
MEAN_MOTION_DDOT = 0

CCSDS_OMM_VERS = 2.0
CREATION_DATE  = 
ORIGINATOR     = 

OBJECT_NAME    = CZ-2C R/B
OBJECT_ID      = 2011-030B
CENTER_NAME    = EARTH
REF_FRAME      = TEME
TIME_SYSTEM    = UTC
MEAN_ELEMENT_THEORY = SGP/SGP4

EPOCH          = 2026-03-23T18:57:36.306720
MEAN_MOTION    = 14.81270605
ECCENTRICITY   = .00513185
INCLINATION    = 97.8569
RA_OF_ASC_NODE = 39.7735
ARG_OF_PERICENTER = 305.5958
MEAN_ANOMALY   = 73.9517

EPHEMERIS_TYPE = 0
CLASSIFICATION_TYPE = U
NORAD_CAT_ID   = 37731
ELEMENT_SET_NO = 999
REV_AT_EPOCH   = 79218
BSTAR          = .19186071E-3
MEAN_MOTION_DOT = .1474E-4
MEAN_MOTION_DDOT = 0

CCSDS_OMM_VERS = 2.0
CREATION_DATE  = 
ORIGINATOR     = 

OBJECT_NAME    = H-2A R/B
OBJECT_ID      = 2012-025E
CENTER_NAME    = EARTH
REF_FRAME      = TEME
TIME_SYSTEM    = UTC
MEAN_ELEMENT_THEORY = SGP/SGP4

EPOCH          = 2026-03-23T21:58:37.304256
MEAN_MOTION    = 14.95263760
ECCENTRICITY   = .00428267
INCLINATION    = 98.4755
RA_OF_ASC_NODE = 51.1038
ARG_OF_PERICENTER = 266.0708
MEAN_ANOMALY   = 93.5613

EPHEMERIS_TYPE = 0
CLASSIFICATION_TYPE = U
NORAD_CAT_ID   = 38341
ELEMENT_SET_NO = 999
REV_AT_EPOCH   = 75034
BSTAR          = .32805953E-3
MEAN_MOTION_DOT = .3607E-4
MEAN_MOTION_DDOT = 0

CCSDS_OMM_VERS = 2.0
CREATION_DATE  = 
ORIGINATOR     = 

OBJECT_NAME    = SHIJIAN-16 (SJ-16)
OBJECT_ID      = 2013-057A
CENTER_NAME    = EARTH
REF_FRAME      = TEME
TIME_SYSTEM    = UTC
MEAN_ELEMENT_THEORY = SGP/SGP4

EPOCH          = 2026-03-23T23:24:05.164992
MEAN_MOTION    = 14.92409667
ECCENTRICITY   = .00151814
INCLINATION    = 74.9727
RA_OF_ASC_NODE = 158.0458
ARG_OF_PERICENTER = 75.3179
MEAN_ANOMALY   = 284.9690

EPHEMERIS_TYPE = 0
CLASSIFICATION_TYPE = U
NORAD_CAT_ID   = 39358
ELEMENT_SET_NO = 999
REV_AT_EPOCH   = 67363
BSTAR          = .37484242E-3
MEAN_MOTION_DOT = .382E-4
MEAN_MOTION_DDOT = 0

CCSDS_OMM_VERS = 2.0
CREATION_DATE  = 
ORIGINATOR     = 

OBJECT_NAME    = SL-4 R/B
OBJECT_ID      = 2014-021B
CENTER_NAME    = EARTH
REF_FRAME      = TEME
TIME_SYSTEM    = UTC
MEAN_ELEMENT_THEORY = SGP/SGP4

EPOCH          = 2026-03-23T20:17:47.977152
MEAN_MOTION    = 15.39647246
ECCENTRICITY   = .00962398
INCLINATION    = 51.6055
RA_OF_ASC_NODE = 268.1929
ARG_OF_PERICENTER = 154.5706
MEAN_ANOMALY   = 206.0060

EPHEMERIS_TYPE = 0
CLASSIFICATION_TYPE = U
NORAD_CAT_ID   = 39679
ELEMENT_SET_NO = 999
REV_AT_EPOCH   = 65845
BSTAR          = .39501309E-3
MEAN_MOTION_DOT = .18225E-3
MEAN_MOTION_DDOT = 0

