H-2A R/B                
1 28932U 06002B   26082.92673378  .00009881  00000+0  49037-3 0  9996
2 28932  98.2443 231.1802 0052278 192.1274 167.8702 15.16725804 96592
RESURS-DK 1             
1 29228U 06021A   26082.75165195  .00002715  00000+0  16023-3 0  9998
2 29228  69.9339 200.6470 0000713  89.5327 270.5921 15.12835410 89652
CZ-4B R/B               
1 29507U 06046C   26082.92310447  .00005290  00000+0  26734-3 0  9997
2 29507  97.5564 127.7932 0032278 215.8566 144.0501 15.17045680 62209
CZ-2C R/B               
1 31114U 07010B   26082.88638879  .00000130  00000+0  78998-4 0  9991
2 31114  98.3993 195.4546 0057910 252.5152 106.9691 14.20251087981731
COSMO-SKYMED 1          
1 31598U 07023A   26082.97246647  .00002918  00000+0  26118-3 0  9991
2 31598  97.8880 274.1209 0001093  87.9139 272.2208 14.96639429 17041
COSMOS 2428             
1 31792U 07029A   26082.69371954 -.00000003  00000+0  24057-4 0  9997
2 31792  70.9441 173.9519 0009616 262.7406  97.2622 14.12947956966077
SL-16 R/B               
1 31793U 07029B   26082.93778736  .00000231  00000+0  14470-3 0  9993
2 31793  70.9755 142.4358 0002508 277.0275 255.5701 14.14841774967389
KORONAS-FOTON           
1 33504U 09003A   26082.96211950  .00014394  00000+0  31747-3 0  9993
2 33504  82.4278 261.0326 0011818 103.3625 256.8941 15.43688875947940
CZ-2C R/B               
1 37731U 11030B   26082.79000355  .00001474  00000+0  19186-3 0  9996
2 37731  97.8569  39.7735 0051318 305.5958  73.9517 14.81270605792187
H-2A R/B                
1 38341U 12025E   26082.91570954  .00003607  00000+0  32806-3 0  9994
2 38341  98.4755  51.1038 0042826 266.0708  93.5613 14.95263760750347
SHIJIAN-16 (SJ-16)      
1 39358U 13057A   26082.97505978  .00003820  00000+0  37484-3 0  9993
2 39358  74.9727 158.0458 0015181  75.3179 284.9690 14.92409667673636
SL-4 R/B                
1 39679U 14021B   26082.84569418  .00018225  00000+0  39501-3 0  9993
2 39679  51.6055 268.1929 0096239 154.5706 206.0060 15.39647246658451
